#dP2022  6 21 18  0  0.00000000      96 __u+U ITR00 EXT  IAC
## 2215 237600.00000000   900.00000000 59751 0.7500000000000
+  116   C06C07C08C09C10C11C12C13C14C16C19C20C21C22C23C24C25
+        C26C27C28C29C30C32C33C34C35C36C37C38C39C40C41C42C43
+        C44C45C46E01E02E03E04E05E07E08E09E10E11E12E13E14E15
+        E18E19E21E24E25E26E27E30E31E33E34E36G01G02G03G04G05
+        G06G07G08G09G10G11G12G13G14G15G16G17G18G19G20G21G22
+        G23G24G25G26G27G28G29G30G31G32J02J03R01R02R03R04R05
+        R07R08R09R11R12R13R14R15R17R18R19R20R21R24  0  0  0
++         9 12 10  8  9  9 10 10  9  9  9  8  9  8  7  9  8
++        10 10  9  9  9  8  9  7  9  8  8 10 11 10 10  9 10
++         7  8  7  8  7  9  8  7  7  7  8  7  8  8  7  8  8
++         8  8  8  8  8  6  8  8  7  7  7  7  7  7  6  9  8
++         7  8  7  7  7  7  8  8  7  7  6  8  8  7  9  8  6
++         6  8  7  7  8  8  6  8  8  7  9  9  9  9  8  8  9
++         8  9  7  9  9  9  7  7  7  8 10  9  7  8  0  0  0
%c M  cc GPS ccc cccc cccc cccc cccc ccccc ccccc ccccc ccccc
%c cc cc ccc ccc cccc cccc cccc cccc ccccc ccccc ccccc ccccc
%f  0.0000000  0.000000000  0.00000000000  0.000000000000000
%f  0.0000000  0.000000000  0.00000000000  0.000000000000000
%i    0    0    0    0      0      0      0      0         0
%i    0    0    0    0      0      0      0      0         0
/* IAC                                ULTRA-RAPID PREDICTION
/* S/V CLOCKS ARE ALIGNED TO GNSS TIME                      
/* G:C1WC2W R:C1PC2P E:C1XC5X C:C2IC6I J:C1CC2S             
/* PCV:IGS14_2196 OL/AL:FES2004  NONE     YN ORB:CoN CLK:CoN
*  2022 06 22 13  0  0.00000000
PC06  -1322.518952  37696.649078  19086.746010    241.969776
PC07  -9776.182399  25886.783373 -31839.402594   -332.356024
PC08 -17793.034573  35359.143964  14326.555383    373.603918
PC09   2202.091515  40284.496397  13472.514886   -907.473749
PC10  -2171.414072  26683.161399 -32295.774713    124.429013
PC11  -4454.059260 -26149.409336   8777.350259    429.997108
PC12   8559.213302 -15877.680044  21325.423375   -593.324989
PC13 -12315.935021  35581.097484  18812.596949      3.216694
PC14  -2114.565979 -15991.374696 -22755.286990    512.148289
PC16  -3556.831662  35862.523267  22284.858976    140.734423
PC19  12999.663451  14915.539762  19696.153151    -54.563357
PC20  -7273.163445  14783.875790  22543.107698   -965.605407
PC21  24522.605728  -5698.382723 -11989.972010   -534.328500
PC22  26613.125408   6449.149520   5288.582599   -963.727935
PC23 -16797.308722  -3817.454501  21965.959962   -936.478221
PC24  13301.495190 -24052.249758   4886.626106   -969.519295
PC25  -3805.186733 -19331.297525  19765.789776   -718.199936
PC26  20441.375364 -15536.788974 -10980.383551    719.900589
PC27 -14188.013687   7228.217059 -22941.883449    742.923335
PC28 -18207.469054 -12404.217868 -17133.762300     81.518648
PC29  12378.589393  25000.939121    686.121770    571.826284
PC30  -1661.814673  22714.423166 -16150.154443    500.224688
PC32 -24530.140527   5881.429890  11969.490896   -970.566528
PC33 -13053.814006 -14863.724894 -19684.750643   -971.695229
PC34    904.552640 -23255.453987  15367.532290   -375.164972
PC35  18633.768674  12856.699605  16324.111167    332.337676
PC36   2878.562445  19734.702449 -19490.123307   -969.579456
PC37 -20922.304164  14042.880735  11993.421858   -910.589140
PC38 -21784.760765  35459.920829   6331.251144      4.964239
PC39  -5920.103435  32335.178600  26541.910982     35.001613
PC40 -15908.121944  19247.950028 -34030.901559    279.516747
PC41 -26503.144657  -6609.601924  -5678.110529    -22.021993
PC42   8412.826859 -14544.294003 -22231.231296   -958.402102
PC43 -11887.297035 -25235.372852    -22.005844   -916.695565
PC44  14152.724604  -7524.939711  22826.709814    700.524556
PC45  16875.619436   3402.178560 -21958.936040    790.054865
PC46 -12195.729223  24251.980869  -6387.651975   -392.639341
PE01  25319.333121    194.774173 -15328.918986   -501.063806
PE02 -25392.819937    -67.550657  15202.635395    307.292577
PE03 -26003.140362 -10378.222315   9634.921505   -571.445142
PE04  18323.369767  -6245.154826 -22380.331250  -1055.545177
PE05 -18530.708929 -21235.859651  -9045.715560   -169.791566
PE07    382.820296  19584.131612  22199.118960   -680.788144
PE08 -18080.966544   6376.394898  22561.839507   -550.991511
PE09   -605.704405 -19504.018066 -22254.036545   -562.244096
PE10  10500.808033 -24607.933807  12652.277655   -521.397607
PE11   4664.194982 -29088.118467   2783.811320   3263.649548
PE12  14568.045906 -16396.243810  19858.800677    -24.298910
PE13  -5047.572780  28956.210964  -3531.469524    429.428212
PE14  17916.639120  17054.568708    995.630035  -1800.437826
PE15 -14516.447506  16298.508724 -20000.193258    737.824475
PE18 -26505.644448 -12604.883239 -12663.536750  -1299.865668
PE19  25855.024504  12348.729859  -7418.896872  -5301.014921
PE21  10990.906331  13101.448997 -24158.339835   -741.657589
PE24  11796.719657 -19395.841284  18994.131420   -684.672148
PE25 -10707.287182 -13263.723879  24206.649579   -578.487173
PE26   7878.206955  23917.320798  15552.522467  -1292.099534
PE27 -10552.669209  19394.413159 -19707.289830   -327.955555
PE30 -26124.860919  13621.923351  -2806.578935   -613.125977
PE31  25687.830763 -14230.763015   3718.879998   -498.694482
PE33  15374.609455   5914.861266  24589.193533   -455.389949
PE34 -15435.663737  -5662.234301 -24628.166400   -523.424278
PE36  -7318.953527 -24509.964757 -14894.268900   -391.736344
PG01  13319.830160 -18103.337132  13564.047343    336.097032
PG02 -14385.715079  -3772.531239 -21351.615538   -652.419003
PG03  21732.229097 -12844.066466  -8177.986562   -286.330968
PG04  13033.089881  -8355.711887 -21578.454746   -154.294794
PG05 -25478.373929   4668.443947  -6388.926228    -86.453641
PG06  -7318.138340 -18957.677277 -17001.648365    354.119828
PG07   4933.182557 -25811.096909   1010.873678    321.327176
PG08  18800.523805  -1056.306742  18829.764679    -73.193209
PG09   3074.775841 -16615.392720 -20549.230432   -326.085522
PG10   6148.375117  13736.916301  22042.472331   -464.684429
PG11 -14110.374107  -5765.793302 -21755.779128    -13.510688
PG12 -24136.761009   9708.072909  -5327.694312   -235.054616
PG13 -20539.458553  -9621.380243  13810.399927    334.647338
PG14  -4138.640865 -14826.375586  21645.026680   -111.831708
PG15 -18763.094000   3484.615869  18177.128139    -51.232783
PG16  24550.711236   2025.293595 -10779.121511   -510.714053
PG17 -11399.309606 -21749.536896  10482.206937    628.116498
PG18  -5825.517107  25845.800612    363.616018    134.890046
PG19 -17057.813807 -20456.066329   1354.169896    174.051259
PG20 -20744.394506  -2643.971165 -16235.180029    509.308514
PG21  15469.084329  -8242.226828  20383.336664    161.302776
PG22  18312.494264  19362.928942   -159.536640    280.024841
PG23  -6033.735683  16564.939906  19821.481833    -29.364365
PG24 -14190.289265  14740.914993  16408.571557    214.960753
PG25 -13543.957106  16389.399628 -16034.172775    340.443583
PG26  17923.609458   7496.855862 -18329.310221    213.907065
PG27  22224.595522  11141.267798   9666.445997    217.428635
PG28 -13134.711586 -11492.709470  20464.517082    333.372655
PG29  -3546.056817  16351.872760 -20661.421531   -526.526803
PG30  -1993.686521 -24386.898694  10100.538918   -532.113063
PG31   9422.384695  16602.810792 -18401.395494   -182.818490
PG32  14743.250917  20734.324756   8105.466375   -157.529375
PJ02 -36069.307445  19839.589652  -4674.400872     -0.901435
PJ03 -18048.062254  28401.301187 -20859.531098     -3.015801
PR01  -1749.035902 -11715.724406 -22588.064238     10.324348
PR02 -19720.370365 -11560.485410 -11210.143253    521.980598
PR03 -24379.732933  -4248.886009   6118.503129     58.888541
PR04 -15345.326856   4997.752813  19781.779022    147.668382
PR05   2065.893032  11671.599636  22603.556289     95.059551
PR07  24303.715571   3969.865123  -6697.398388     36.786695
PR08  15286.598452  -5159.308293 -19706.172797    -65.821691
PR09   7789.043130   8180.680839 -22850.798387     61.857809
PR11  18662.037545 -17321.667457  -1367.186410     35.455249
PR12   7872.950378 -18189.073453  16094.509629     18.978414
PR13  -6523.744664  -9002.825829  22946.397411    -23.856364
PR14 -18369.007622   6659.355907  16425.713340     25.158723
PR15 -18627.279497  17425.664351    504.190343     95.207538
PR17 -11485.422958  -4643.621302 -22303.909193    537.115416
PR18  -6633.645339  13150.617971 -20833.550891    121.128242
PR19    332.184112  23655.227052  -9541.248840   -193.634242
PR20   9019.082372  21310.047925  10779.046261    -73.121953
PR21  11171.281569   3004.528162  22722.672157   -311.511863
PR24  -9976.598522 -20589.812548 -11286.017314     99.942978
EOF
